PCSAT (NO-44)           
1 26931U 01043C   26068.55835784  .00000217  00000+0  11176-3 0  9994
2 26931  67.0506 141.9526 0007015 265.3804  94.6497 14.31912221276185
IRIDIUM 156             
1 43576U 18061H   26068.55775889 -.00000025  00000+0 -15896-4 0  9998
2 43576  86.3916  98.4058 0001926  95.8420 264.2995 14.34217428399093
