[{"OBJECT_NAME":"PCSAT (NO-44)","OBJECT_ID":"2001-043C","EPOCH":"2026-03-09T13:24:02.117376","MEAN_MOTION":14.31912221,"ECCENTRICITY":0.0007015,"INCLINATION":67.0506,"RA_OF_ASC_NODE":141.9526,"ARG_OF_PERICENTER":265.3804,"MEAN_ANOMALY":94.6497,"EPHEMERIS_TYPE":0,"CLASSIFICATION_TYPE":"U","NORAD_CAT_ID":26931,"ELEMENT_SET_NO":999,"REV_AT_EPOCH":27618,"BSTAR":0.00011176,"MEAN_MOTION_DOT":2.17e-6,"MEAN_MOTION_DDOT":0},{"OBJECT_NAME":"IRIDIUM 156","OBJECT_ID":"2018-061H","EPOCH":"2026-03-09T13:23:10.368096","MEAN_MOTION":14.34217428,"ECCENTRICITY":0.0001926,"INCLINATION":86.3916,"RA_OF_ASC_NODE":98.4058,"ARG_OF_PERICENTER":95.842,"MEAN_ANOMALY":264.2995,"EPHEMERIS_TYPE":0,"CLASSIFICATION_TYPE":"U","NORAD_CAT_ID":43576,"ELEMENT_SET_NO":999,"REV_AT_EPOCH":39909,"BSTAR":-1.5896e-5,"MEAN_MOTION_DOT":-2.5e-7,"MEAN_MOTION_DDOT":0}]
